{
  "type": "FeatureCollection",
  "features": [
    {
      "type": "Feature",
      "properties": {
        "norad_id": 44794,
        "name": "BEIDOU-3 M21 (C43)",
        "group": "beidou",
        "lat": -45.10700829713848,
        "lon": -100.59234322528745,
        "alt_km": 21530.166319957538,
        "timestamp": "2025-12-20T20:38:44.708357+00:00",
        "meta_object_name": "BEIDOU-3 M21 (C43)",
        "meta_object_id": "2019-078B",
        "meta_epoch": "2025-12-16T15:43:55.727904",
        "meta_mean_motion": 1.86227668,
        "meta_eccentricity": 0.00041169,
        "meta_inclination": 54.078,
        "meta_ra_of_asc_node": 306.2132,
        "meta_arg_of_pericenter": 11.942,
        "meta_mean_anomaly": 348.0544,
        "meta_ephemeris_type": 0,
        "meta_classification_type": "U",
        "meta_norad_cat_id": 44794,
        "meta_element_set_no": 999,
        "meta_rev_at_epoch": 4125,
        "meta_bstar": 0,
        "meta_mean_motion_dot": -9.5e-07,
        "meta_mean_motion_ddot": 0,
        "tle_line1": "1 44794U 19078B   25350.65550611 -.00000095  00000+0  00000+0 0  9990",
        "tle_line2": "2 44794  54.0780 306.2132 0004116  11.9420 348.0544  1.86227668 41256"
      },
      "geometry": {
        "type": "Point",
        "coordinates": [
          -100.59234322528745,
          -45.10700829713848
        ]
      }
    },
    {
      "type": "Feature",
      "properties": {
        "norad_id": 44864,
        "name": "BEIDOU-3 M19 (C41)",
        "group": "beidou",
        "lat": 36.2784784356122,
        "lon": -140.44944947761323,
        "alt_km": 21567.81131427303,
        "timestamp": "2025-12-20T20:38:44.708389+00:00",
        "meta_object_name": "BEIDOU-3 M19 (C41)",
        "meta_object_id": "2019-090A",
        "meta_epoch": "2025-12-20T15:41:59.602848",
        "meta_mean_motion": 1.86231617,
        "meta_eccentricity": 0.0018291,
        "meta_inclination": 56.3995,
        "meta_ra_of_asc_node": 68.6991,
        "meta_arg_of_pericenter": 285.0165,
        "meta_mean_anomaly": 71.6707,
        "meta_ephemeris_type": 0,
        "meta_classification_type": "U",
        "meta_norad_cat_id": 44864,
        "meta_element_set_no": 999,
        "meta_rev_at_epoch": 4090,
        "meta_bstar": 0,
        "meta_mean_motion_dot": -4.1e-07,
        "meta_mean_motion_ddot": 0,
        "tle_line1": "1 44864U 19090A   25354.65416207 -.00000041  00000+0  00000+0 0  9999",
        "tle_line2": "2 44864  56.3995  68.6991 0018291 285.0165  71.6707  1.86231617 40908"
      },
      "geometry": {
        "type": "Point",
        "coordinates": [
          -140.44944947761323,
          36.2784784356122
        ]
      }
    },
    {
      "type": "Feature",
      "properties": {
        "norad_id": 44865,
        "name": "BEIDOU-3 M20 (C42)",
        "group": "beidou",
        "lat": -35.5807597077739,
        "lon": -82.90301646324532,
        "alt_km": 21519.664446703842,
        "timestamp": "2025-12-20T20:38:44.708402+00:00",
        "meta_object_name": "BEIDOU-3 M20 (C42)",
        "meta_object_id": "2019-090B",
        "meta_epoch": "2025-12-20T13:54:30.736224",
        "meta_mean_motion": 1.86231557,
        "meta_eccentricity": 0.00154748,
        "meta_inclination": 56.4009,
        "meta_ra_of_asc_node": 68.736,
        "meta_arg_of_pericenter": 297.1994,
        "meta_mean_anomaly": 99.0588,
        "meta_ephemeris_type": 0,
        "meta_classification_type": "U",
        "meta_norad_cat_id": 44865,
        "meta_element_set_no": 999,
        "meta_rev_at_epoch": 4089,
        "meta_bstar": 0,
        "meta_mean_motion_dot": -4.2e-07,
        "meta_mean_motion_ddot": 0,
        "tle_line1": "1 44865U 19090B   25354.57952241 -.00000042  00000+0  00000+0 0  9995",
        "tle_line2": "2 44865  56.4009  68.7360 0015474 297.1994  99.0588  1.86231557 40893"
      },
      "geometry": {
        "type": "Point",
        "coordinates": [
          -82.90301646324532,
          -35.5807597077739
        ]
      }
    },
    {
      "type": "Feature",
      "properties": {
        "norad_id": 45344,
        "name": "BEIDOU-3 G2 (C60)",
        "group": "beidou",
        "lat": 2.453535968049803,
        "lon": 119.37682438249514,
        "alt_km": 35793.561155378025,
        "timestamp": "2025-12-20T20:38:44.708414+00:00",
        "meta_object_name": "BEIDOU-3 G2 (C60)",
        "meta_object_id": "2020-017A",
        "meta_epoch": "2025-12-19T13:38:45.370752",
        "meta_mean_motion": 1.00273166,
        "meta_eccentricity": 0.0002079,
        "meta_inclination": 2.5096,
        "meta_ra_of_asc_node": 44.0024,
        "meta_arg_of_pericenter": 233.0917,
        "meta_mean_anomaly": 96.0359,
        "meta_ephemeris_type": 0,
        "meta_classification_type": "U",
        "meta_norad_cat_id": 45344,
        "meta_element_set_no": 999,
        "meta_rev_at_epoch": 2145,
        "meta_bstar": 0,
        "meta_mean_motion_dot": -1.18e-06,
        "meta_mean_motion_ddot": 0,
        "tle_line1": "1 45344U 20017A   25353.56858068 -.00000118  00000+0  00000+0 0  9993",
        "tle_line2": "2 45344   2.5096  44.0024 0002079 233.0917  96.0359  1.00273166 21451"
      },
      "geometry": {
        "type": "Point",
        "coordinates": [
          119.37682438249514,
          2.453535968049803
        ]
      }
    },
    {
      "type": "Feature",
      "properties": {
        "norad_id": 45807,
        "name": "BEIDOU-3 G3 (C61)",
        "group": "beidou",
        "lat": 2.010540711331215,
        "lon": 149.99140333992082,
        "alt_km": 35805.04751668,
        "timestamp": "2025-12-20T20:38:44.708426+00:00",
        "meta_object_name": "BEIDOU-3 G3 (C61)",
        "meta_object_id": "2020-040A",
        "meta_epoch": "2025-12-20T14:57:17.199936",
        "meta_mean_motion": 1.00270346,
        "meta_eccentricity": 0.00064657,
        "meta_inclination": 2.0095,
        "meta_ra_of_asc_node": 66.6478,
        "meta_arg_of_pericenter": 309.3308,
        "meta_mean_anomaly": 48.3729,
        "meta_ephemeris_type": 0,
        "meta_classification_type": "U",
        "meta_norad_cat_id": 45807,
        "meta_element_set_no": 999,
        "meta_rev_at_epoch": 2027,
        "meta_bstar": 0,
        "meta_mean_motion_dot": -3.32e-06,
        "meta_mean_motion_ddot": 0,
        "tle_line1": "1 45807U 20040A   25354.62311574 -.00000332  00000+0  00000+0 0  9995",
        "tle_line2": "2 45807   2.0095  66.6478 0006465 309.3308  48.3729  1.00270346 20273"
      },
      "geometry": {
        "type": "Point",
        "coordinates": [
          149.99140333992082,
          2.010540711331215
        ]
      }
    },
    {
      "type": "Feature",
      "properties": {
        "norad_id": 56564,
        "name": "BEIDOU-3 G4 (C62)",
        "group": "beidou",
        "lat": -0.7874772786379163,
        "lon": -160.56200417160437,
        "alt_km": 35776.466058563026,
        "timestamp": "2025-12-20T20:38:44.708438+00:00",
        "meta_object_name": "BEIDOU-3 G4 (C62)",
        "meta_object_id": "2023-066A",
        "meta_epoch": "2025-12-20T15:12:35.414208",
        "meta_mean_motion": 1.00271503,
        "meta_eccentricity": 0.00027084,
        "meta_inclination": 0.7986,
        "meta_ra_of_asc_node": 302.653,
        "meta_arg_of_pericenter": 226.5247,
        "meta_mean_anomaly": 308.4958,
        "meta_ephemeris_type": 0,
        "meta_classification_type": "U",
        "meta_norad_cat_id": 56564,
        "meta_element_set_no": 999,
        "meta_rev_at_epoch": 960,
        "meta_bstar": 0,
        "meta_mean_motion_dot": -8.6e-07,
        "meta_mean_motion_ddot": 0,
        "tle_line1": "1 56564U 23066A   25354.63374322 -.00000086  00000+0  00000+0 0  9995",
        "tle_line2": "2 56564   0.7986 302.6530 0002708 226.5247 308.4958  1.00271503  9603"
      },
      "geometry": {
        "type": "Point",
        "coordinates": [
          -160.56200417160437,
          -0.7874772786379163
        ]
      }
    },
    {
      "type": "Feature",
      "properties": {
        "norad_id": 58654,
        "name": "BEIDOU-3 M28 (C50)",
        "group": "beidou",
        "lat": -49.22833673044205,
        "lon": -59.13020443809614,
        "alt_km": 21527.021849741453,
        "timestamp": "2025-12-20T20:38:44.708449+00:00",
        "meta_object_name": "BEIDOU-3 M28 (C50)",
        "meta_object_id": "2023-207A",
        "meta_epoch": "2025-12-18T08:16:11.764704",
        "meta_mean_motion": 1.86229821,
        "meta_eccentricity": 0.00026501,
        "meta_inclination": 55.5892,
        "meta_ra_of_asc_node": 68.4116,
        "meta_arg_of_pericenter": 272.4264,
        "meta_mean_anomaly": 87.5728,
        "meta_ephemeris_type": 0,
        "meta_classification_type": "U",
        "meta_norad_cat_id": 58654,
        "meta_element_set_no": 999,
        "meta_rev_at_epoch": 1347,
        "meta_bstar": 0,
        "meta_mean_motion_dot": -6.6e-07,
        "meta_mean_motion_ddot": 0,
        "tle_line1": "1 58654U 23207A   25352.34458061 -.00000066  00000+0  00000+0 0  9991",
        "tle_line2": "2 58654  55.5892  68.4116 0002650 272.4264  87.5728  1.86229821 13471"
      },
      "geometry": {
        "type": "Point",
        "coordinates": [
          -59.13020443809614,
          -49.22833673044205
        ]
      }
    }
  ]
}